[{"OBJECT_NAME":"STARLINK-2298","OBJECT_ID":"2021-024AX","EPOCH":"2026-03-10T00:00:02.999808","MEAN_MOTION":15.15852398,"ECCENTRICITY":0.00022088,"INCLINATION":53.0935,"RA_OF_ASC_NODE":330.2189,"ARG_OF_PERICENTER":83.1069,"MEAN_ANOMALY":79.3652,"EPHEMERIS_TYPE":0,"CLASSIFICATION_TYPE":"U","NORAD_CAT_ID":48022,"ELEMENT_SET_NO":999,"REV_AT_EPOCH":575,"BSTAR":0.0020729399,"MEAN_MOTION_DOT":0.00040038,"MEAN_MOTION_DDOT":0},{"OBJECT_NAME":"FLOCK 4H-24","OBJECT_ID":"2025-276BP","EPOCH":"2026-03-09T18:13:36.505920","MEAN_MOTION":15.18576009,"ECCENTRICITY":0.00040024,"INCLINATION":97.4303,"RA_OF_ASC_NODE":144.0349,"ARG_OF_PERICENTER":19.0995,"MEAN_ANOMALY":341.0389,"EPHEMERIS_TYPE":0,"CLASSIFICATION_TYPE":"U","NORAD_CAT_ID":66727,"ELEMENT_SET_NO":999,"REV_AT_EPOCH":1532,"BSTAR":0.00041158083,"MEAN_MOTION_DOT":8.446e-5,"MEAN_MOTION_DDOT":0}]
